ORBCOMM FM103           
1 40091U 14040F   25254.51734948  .00000480  00000+0  13939-3 0  9991
2 40091  47.0067 330.0660 0002414 295.2551  64.8084 14.58294926576703
ORBCOMM FM114           
1 41179U 15081A   25254.67347434  .00000480  00000+0  13930-3 0  9993
2 41179  47.0017 238.3285 0002122 356.6270   3.4601 14.58330093517092
ORBCOMM FM119           
1 41180U 15081B   25254.39143590  .00000450  00000+0  13282-3 0  9998
2 41180  47.0001 148.9971 0000639  59.8758 300.2190 14.58265931518303
ORBCOMM FM105           
1 41181U 15081C   25254.43005381  .00000199  00000+0  10069-3 0  9999
2 41181  47.0010 162.1557 0002208 332.4658  27.6105 14.45284785513221
ORBCOMM FM110           
1 41182U 15081D   25254.46015058  .00000577  00000+0  15986-3 0  9998
2 41182  47.0008 238.8733 0003137 252.1090 107.9454 14.58339950516935
ORBCOMM FM118           
1 41183U 15081E   25254.35534769  .00000359  00000+0  11328-3 0  9996
2 41183  47.0029 239.6231 0002908 211.3960 148.6752 14.58319753517022
ORBCOMM FM112           
1 41184U 15081F   25254.43038058  .00000720  00000+0  19031-3 0  9997
2 41184  46.9987 147.8888 0001562   3.0589 357.0306 14.58379140518253
ORBCOMM FM113           
1 41185U 15081G   25254.40730022  .00000649  00000+0  17525-3 0  9991
2 41185  47.0002 148.3361 0001217  15.2017 344.8905 14.58373558518238
